H-2A R/B                
1 27601U 02056E   24328.37538507  .00000733  00000+0  27345-3 0  9992
2 27601  98.2527 297.7516 0071758 126.0454  36.2158 14.33185205146589
CZ-4B R/B               
1 28059U 03049C   24328.35756606  .00001089  00000+0  26500-3 0  9990
2 28059  98.6344 295.4437 0047702 229.5054 130.1981 14.54271674118072
CZ-2C R/B               
1 28222U 04012C   24328.02104667  .00026077  00000+0  79386-3 0  9995
2 28222  97.7943 348.7365 0028496 209.2978 150.6666 15.33578851131370
SL-16 R/B               
1 28353U 04021B   24328.49585337 -.00000114  00000+0 -34772-4 0  9995
2 28353  70.9993 141.2539 0004402   5.3008 354.8160 14.14491328 56208
CZ-4B R/B               
1 28415U 04035C   24328.51532017  .00012052  00000+0  55672-3 0  9992
2 28415  97.4068 358.8946 0039196 186.3869 173.6872 15.19643583108129
CZ-2C R/B               
1 28480U 04046B   24328.31257815  .00000402  00000+0  16447-3 0  9997
2 28480  98.1797 261.9997 0141310 108.5795 253.0795 14.26617442 41286
ARIANE 5 R/B            
1 28499U 04049H   24328.35915982  .00002556  00000+0  29659-3 0  9991
2 28499  98.2058 110.3452 0087834  78.1972 282.9077 14.83601254 75861
CZ-2D R/B               
1 28738U 05024B   24328.39845191  .00025468  00000+0  79094-3 0  9994
2 28738  97.3690 325.4446 0005457 310.9885  49.0885 15.33336494 66992
SUZAKU (ASTRO-EII)      
1 28773U 05025A   24328.50317175  .00212265  00000+0  12331-2 0  9996
2 28773  31.3779 119.5924 0004220  49.9665 310.1369 15.76795276 71845
ALOS (DAICHI)           
1 28931U 06002A   24328.34105254  .00003943  00000+0  70785-3 0  9992
2 28931  98.0581 278.3108 0001949  52.5138 307.6243 14.67263793  4290
H-2A R/B                
1 28932U 06002B   24327.87348551  .00013609  00000+0  90027-3 0  9990
2 28932  98.2024  68.8910 0065132  36.4991 324.0646 15.05733197 23171
RESURS-DK 1             
1 29228U 06021A   24328.27583116  .00004815  00000+0  30988-3 0  9992
2 29228  69.9362  13.2319 0002368 173.4208 186.6987 15.09047877 16317
GENESIS 1               
1 29252U 06029A   24328.49926693  .00050762  00000+0  81855-3 0  9993
2 29252  64.5110 343.7682 0035259 306.4564  53.3327 15.51901738 15193
CZ-4B R/B               
1 29507U 06046C   24328.04029197  .00009809  00000+0  58639-3 0  9999
2 29507  97.6255   3.3049 0039559  93.9631 266.6122 15.10607971988670
CZ-2C R/B               
1 31114U 07010B   24328.16340075  .00000492  00000+0  24665-3 0  9993
2 31114  98.3554  95.1703 0058501 225.0014 134.6415 14.19973904912793
COSMO-SKYMED 1          
1 31598U 07023A   24328.52830231  .00001375  00000+0  17936-3 0  9995
2 31598  97.8866 149.3815 0001432  93.9132 266.2245 14.82136314944726
GENESIS 2               
1 31789U 07028A   24328.57010896  .00045431  00000+0  83403-3 0  9997
2 31789  64.4863  30.4645 0010303 283.7708  76.2283 15.48940301961992
COSMOS 2428             
1 31792U 07029A   24328.44122838  .00000558  00000+0  32568-3 0  9995
2 31792  70.9393 112.5173 0007936 201.6400 158.4386 14.12805250897538
SL-16 R/B               
1 31793U 07029B   24328.25113852  .00000009  00000+0  29537-4 0  9995
2 31793  70.9751  83.3017 0002511 279.7305 116.1502 14.14710513898691
KORONAS-FOTON           
1 33504U 09003A   24328.49856983  .00016163  00000+0  53556-3 0  9991
2 33504  82.4367  41.0699 0013931  43.2664 316.9668 15.31070562873353
CZ-2C R/B               
1 37731U 11030B   24328.53823463  .00003317  00000+0  44428-3 0  9997
2 37731  97.7874 286.9412 0056545  83.0082  51.6871 14.78967114720390
H-2A R/B                
1 38341U 12025E   24328.41629644  .00007517  00000+0  75451-3 0  9998
2 38341  98.4228 250.1480 0050223  52.0218 308.5519 14.90672520677898
CUSAT 2 & FALCON 9 R/B  
1 39271U 13055G   24328.14501016  .00206851  10490-4  10720-2 0  9995
2 39271  80.9142 242.7861 0180334 118.6708 243.2809 15.61078140589821
SHIJIAN-16 (SJ-16)      
1 39358U 13057A   24328.51029806  .00002243  00000+0  23398-3 0  9992
2 39358  74.9740 355.7435 0016369 179.4152 180.7057 14.90160115601268
SL-4 R/B                
1 39679U 14021B   24328.52071342  .00021283  00000+0  67885-3 0  9997
2 39679  51.6116  91.6226 0126969 202.8637 156.6657 15.24922901584034
ALOS-2                  
1 39766U 14029A   24328.38555427  .00005198  00000+0  70224-3 0  9995
2 39766  97.9227  62.7471 0001492  97.2743 262.8639 14.79482129567184
YAOGAN-29               
1 41038U 15069A   24328.52682889  .00001122  00000+0  14759-3 0  9998
2 41038  98.0492 343.8708 0002921  84.2692 275.8854 14.82183024486064
ASTRO-H (HITOMI)        
1 41337U 16012A   24327.93792437  .00006773  00000+0  44844-3 0  9999
2 41337  30.9993 152.1036 0010427 282.0587  77.8881 15.05887768480957
HXMT (HUIYAN)           
1 42758U 17034A   24328.55694828  .00012035  00000+0  57006-3 0  9998
2 42758  43.0130 110.0953 0009770  61.2082 298.9747 15.19254168411037
CZ-2C R/B               
1 43521U 18054D   24328.00821220  .00031234  00000+0  79917-3 0  9995
2 43521  35.1402 185.2709 0044064 137.3199 223.0958 15.37428328355246
SAOCOM 1A               
1 43641U 18076A   24328.53692977  .00001162  00000+0  15248-3 0  9999
2 43641  97.8854 152.4777 0001310  86.7346 273.4017 14.82153210331573
H-2A R/B                
1 43682U 18084L   24327.92083715  .00025546  00000+0  11141-2 0  9998
2 43682  98.8554  82.0461 0039036 197.9277 162.0580 15.21467365333571
SAOCOM 1B               
1 46265U 20059A   24328.50069724  .00002220  00000+0  28526-3 0  9992
2 46265  97.8856 151.5408 0001415  88.0528 272.0847 14.82164215228954
CSS (TIANHE)            
1 48274U 21035A   24328.55389776  .00024750  00000+0  31135-3 0  9998
2 48274  41.4660 191.4148 0002153 347.4546  12.6238 15.59081083204020
COSMOS 2550             
1 48865U 21056A   24328.13180426  .00000307  00000+0  15165-4 0  9990
2 48865  67.1414  27.4903 0008324 270.2833  89.7368 15.33829547191147
CZ-2C R/B               
1 52794U 22058K   24327.78676649  .00020157  00000+0  64007-3 0  9999
2 52794  50.1960 178.8381 0068882  51.4311 309.2794 15.30295323137348
XRISM                   
1 57800U 23137A   24328.52182725  .00009547  00000+0  65877-3 0  9997
2 57800  31.0030  76.1109 0008496 354.7017   5.3529 15.04511358 66590
2023-193D               
1 58556U 23193D   24328.50966140  .00133571  00000+0  85616-3 0  9995
2 58556  97.2552 342.5272 0013468  79.8929 280.3855 15.75766162 54402
ACS3                    
1 59588U 24077B   24328.04041863  .00018738  00000+0  20149-1 0  9993
2 59588  97.5173   0.0521 0032332 202.1490 157.8269 13.73188900 29142
SZ-17 MODULE            
1 59624U 23164C   24328.50913432  .00289665  41742-4  54807-3 0  9993
2 59624  41.4666 170.0973 0014676 301.2588  58.6826 15.99715108 32694
